[{"OBJECT_NAME":"STARLINK-5739","OBJECT_ID":"2023-020C","EPOCH":"2026-03-09T03:28:55.193664","MEAN_MOTION":15.02532576,"ECCENTRICITY":8.295e-5,"INCLINATION":43.0046,"RA_OF_ASC_NODE":7.92,"ARG_OF_PERICENTER":285.7649,"MEAN_ANOMALY":74.3102,"EPHEMERIS_TYPE":0,"CLASSIFICATION_TYPE":"U","NORAD_CAT_ID":55571,"ELEMENT_SET_NO":999,"REV_AT_EPOCH":16883,"BSTAR":2.0626068e-5,"MEAN_MOTION_DOT":7.5e-7,"MEAN_MOTION_DDOT":0},{"OBJECT_NAME":"CZ-2D DEB","OBJECT_ID":"2010-027G","EPOCH":"2026-03-07T07:54:25.300800","MEAN_MOTION":15.18267572,"ECCENTRICITY":0.0071051,"INCLINATION":97.484,"RA_OF_ASC_NODE":105.3106,"ARG_OF_PERICENTER":258.5099,"MEAN_ANOMALY":100.8151,"EPHEMERIS_TYPE":0,"CLASSIFICATION_TYPE":"U","NORAD_CAT_ID":38302,"ELEMENT_SET_NO":999,"REV_AT_EPOCH":83107,"BSTAR":0.0021438,"MEAN_MOTION_DOT":0.00047105,"MEAN_MOTION_DDOT":0}]
